ONEWEB-0528             
1 54643U 22166B   24080.89950290  .00000020  00000+0  16503-4 0  9995
2 54643  87.9266  46.8396 0001773  78.5994 281.5339 13.21825672 63443
ONEWEB-0539             
1 54644U 22166C   24080.93576495  .00000084  00000+0  17246-3 0  9996
2 54644  87.9270  46.8336 0002108  80.6869 279.4503 13.21828239 63442
ONEWEB-0540             
1 54645U 22166D   24080.93026490  .00000054  00000+0  98481-4 0  9990
2 54645  87.9262  46.8581 0002121  77.7259 282.4112 13.21829083 63438
ONEWEB-0542             
1 54646U 22166E   24080.94522122 -.00000219  00000+0 -56272-3 0  9991
2 54646  87.9267  46.8316 0002435  82.7680 277.3731 13.21824698 63440
ONEWEB-0545             
1 54647U 22166F   24080.91212180  .00000031  00000+0  44744-4 0  9991
2 54647  87.9255  46.8680 0002358  75.2501 284.8895 13.21827015 63401
ONEWEB-0580             
1 54648U 22166G   24080.88530811  .00000028  00000+0  35216-4 0  9992
2 54648  87.9264  46.8352 0002541  83.8465 276.2958 13.21827346 63442
ONEWEB-0582             
1 54649U 22166H   24080.92787791  .00000048  00000+0  84850-4 0  9999
2 54649  87.9262  46.8670 0001992  73.6284 286.5069 13.21827592 63427
ONEWEB-0583             
1 54650U 22166J   24080.93891544  .00000091  00000+0  18954-3 0  9993
2 54650  87.9259  46.8665 0001526  82.1358 277.9949 13.21827616 63438
